SONATE-2
1 59112U 24043Q   26117.94040951  .00041753  00000+0  61814-3 0  9992
2 59112  97.5474 265.4165 0006657  33.1937 326.9733 15.55147802120076
GRBBeta
1 60237U 24128C   26117.97227048  .00004963  00000+0  34296-3 0  9999
2 60237  61.9917  32.3885 0046907 124.1314 236.4241 15.06227513 98702
Curium One
1 60242U 24128H   26117.91245956  .00009676  00000+0  56309-3 0  9992
2 60242  61.9806  23.7267 0046632 120.3922 240.1795 15.11695712 98859
ROBUSTA-3A
1 60243U 24128J   26117.91591567  .00009791  00000+0  58194-3 0  9997
2 60243  61.9883  25.9123 0047715 117.8705 242.7235 15.10881805 98826
CatSat
1 60246U 24125J   26117.84516529  .00054120  00000+0  84121-3 0  9999
2 60246  97.2146 329.8874 0023533  13.3488 346.8384 15.53448849 99569
ARTIC WX
1 60543U 24149CD  26117.91441274  .00000856  00000+0  94881-4 0  9999
2 60543  97.6817 189.8118 0000584 277.3829  82.7323 14.89771011 91812
ARCTICSAT 1
1 61762U 24199AD  26117.65394009  .00199697  00000+0  11270-2 0  9993
2 61762  97.2964 358.2492 0006225  97.2806 262.9169 15.78575029130087
HYPERVIEW-1G (RS66S)
1 61772U 24199AP  26117.90305905  .00097472  00000+0  96852-3 0  9997
2 61772  97.2987 355.4961 0009291 102.7461 257.4838 15.65386204126783
AO-123
1 61781U 24199AY  26117.91395902  .00009489  00000+0  28137-3 0  9996
2 61781  97.3079 347.0468 0015586 125.5094 234.7606 15.34925265126215
SAMSAT-IONOSPHERE
1 61784U 24199BB  26117.94367526  .00045758  00000+0  71858-3 0  9990
2 61784  97.3036 352.7930 0011545 106.2183 254.0341 15.53450516129750
LASARsat
1 62391U 24247Q   26117.47183657  .00037404  00000+0  82547-3 0  9994
2 62391  44.9748 186.5111 0005413   2.7889 357.3030 15.43296910 75473
CROCUBE
1 62394U 24247T   26117.45990440  .00038036  00000+0  79826-3 0  9999
2 62394  44.9717 184.6405 0005084   1.0410 359.0489 15.44777242 75495
JINJUSat 1B
1 63210U 25052A   26117.67902801  .00018032  00000+0  58682-3 0  9991
2 63210  97.4065  14.4140 0001196 254.0077 106.1033 15.31924152 62365
NUSHSAT 1
1 63211U 25052B   26117.66686463  .00022308  00000+0  67929-3 0  9999
2 63211  97.4042  14.8090 0000850 265.0559  95.0587 15.34003837 62396
TEVEL2-4
1 63213U 25052D   26117.68318115  .00020323  00000+0  64230-3 0  9996
2 63213  97.3965  14.0460 0000703 347.7645  12.3580 15.32838225 62373
TEVEL2-5
1 63214U 25052E   26117.69843439  .00018978  00000+0  60283-3 0  9997
2 63214  97.3962  14.0226 0000754 343.0205  17.1012 15.32690171 62377
TEVEL2-6
1 63215U 25052F   26117.70953763  .00019248  00000+0  61206-3 0  9999
2 63215  97.3966  14.0187 0000814 342.0730  18.0483 15.32652465 62373
TEVEL2-1
1 63217U 25052H   26117.98332927  .00020550  00000+0  66268-3 0  9995
2 63217  97.3938  13.9734 0001422 356.9504   3.1729 15.32189375 62406
TEVEL2-3
1 63218U 25052J   26117.65307195  .00019749  00000+0  63637-3 0  9994
2 63218  97.3943  13.6598 0001487 359.5384   0.5856 15.32221011 62354
TEVEL2-2
1 63219U 25052K   26117.98386414  .00020836  00000+0  67171-3 0  9998
2 63219  97.3938  13.9754 0001480 357.1462   2.9771 15.32195088 62402
TEVEL2-9
1 63237U 25052AD  26117.96419039  .00018624  00000+0  63588-3 0  9996
2 63237  97.4003  13.4339 0005110 339.2471  20.8561 15.30354039 62345
TEVEL2-7
1 63238U 25052AE  26117.66913163  .00017579  00000+0  60537-3 0  9990
2 63238  97.4002  13.0758 0005247 340.3139  19.7898 15.30085951 62299
TEVEL2-8
1 63239U 25052AF  26117.67681120  .00017286  00000+0  59567-3 0  9993
2 63239  97.4004  13.0620 0005264 341.5491  18.5558 15.30067531 62297
HADES-ICM (SO-125)
1 63492U 25052BN  26117.70188717  .00390562  00000+0  21979-2 0  9998
2 63492  97.3831  20.6020 0003734 138.8220 221.3329 15.78147007 62817
PARUS-T2
1 64574U 25135AY  26117.91556513  .00004163  00000+0  38296-3 0  9998
2 64574  97.7671 233.2975 0003149 127.5728 232.5779 14.95308658 46414
Geoscan-1
1 64880U 25155E   26117.89704008  .00014239  00000+0  49702-3 0  9990
2 64880  97.4518  86.4112 0007893  13.0757 347.0687 15.29677615 73086
Geoscan-2
1 64890U 25155Q   26117.89983410  .00013571  00000+0  46983-3 0  9993
2 64890  97.4518  86.5460 0006728   1.5409 358.5851 15.29965512 73093
Geoscan-4
1 64892U 25155S   26117.92145716  .00018634  00000+0  60440-3 0  9997
2 64892  97.4517  86.9937 0006678  23.5763 336.5784 15.32003193 73125
Geoscan-3
1 64893U 25155T   26117.91655994  .00022291  00000+0  68571-3 0  9998
2 64893  97.4506  87.2862 0006496  27.3749 332.7834 15.33661706 73146
SPIRONE
1 66657U 25274H   26117.80312580  .00002656  00000+0  25850-3 0  9995
2 66657  97.7466  47.8268 0012179 174.6352 185.5000 14.93332634 22702
K-HERO
1 66660U 25274L   26117.75501798  .00002386  00000+0  23014-3 0  9994
2 66660  97.7478  47.9031 0013843 180.0779 180.0441 14.93766774 22706
SNUGLITE-III DURI
1 66661U 25274M   26117.81148328  .00002196  00000+0  21195-3 0  9995
2 66661  97.7476  47.9773 0014471 181.3654 178.7529 14.93828417 22717
GALAPAGOS
1 67279U 25313AH  26117.92767794  .00008404  00000+0  36852-3 0  9995
2 67279  97.3940 193.3515 0014663 174.3253 185.8153 15.22134073 18308
Lobachevsky
1 67282U 25313AL  26117.94626295  .00006886  00000+0  29957-3 0  9991
2 67282  97.3944 193.4671 0011203 167.9754 192.1752 15.22509481 18317
SAKHACUBE-CHOLBON
1 67290U 25313AU  26117.94458804  .00011999  00000+0  49810-3 0  9990
2 67290  97.3953 193.6403 0010145 164.5851 195.5697 15.23944658 18322
RS95S (QMR-KWT-2)
1 67291U 25313AV  26117.90660623  .00016556  00000+0  66567-3 0  9993
2 67291  97.3950 193.6888 0009984 164.1442 196.0111 15.24944592 18323
KNACKSAT-2
1 67683U 98067XZ  26117.47676612  .00047341  00000+0  67466-3 0  9996
2 67683  51.6292 188.6917 0012442  10.1086 350.0153 15.55749912 12374
Ten-Koh2
1 68261U 25241B   26117.50893339  .00007842  00000+0  34011-3 0  9996
2 68261  51.6477 200.7299 0005636 340.6728  19.4035 15.23241970  7186
JACK-002
1 68417U 26067B   26117.83524465  .00009017  00000+0  43703-3 0  9997
2 68417  97.4528  77.0854 0004093  92.3817 267.7886 15.18747906  4309
DISCO 2
1 68431U 26067R   26117.90966753  .00010230  00000+0  50146-3 0  9999
2 68431  97.4564  77.1532 0003350 132.4319 227.7199 15.18318205  4317
HADES-SA (SpinnyONE)
1 68446U 26067AG  26117.93233632  .00021177  00000+0  10614-2 0  9998
2 68446  97.4374  77.0586 0004815 238.0770 121.9995 15.17365347  4307
PARUS-6U1
1 68456U 26067AS  26117.93369918  .00006777  00000+0  34642-3 0  9993
2 68456  97.4514  77.1033 0004095 223.9538 136.1371 15.16980974  4312
SAL-E
1 68458U 26067AU  26117.93383768  .00009452  00000+0  48098-3 0  9997
2 68458  97.4442  77.0776 0004035 237.2534 122.8311 15.17028935  4312
Delfi-N3xt
1 39428U 13066N   26117.77175788  .00009874  00000-0  86983-3 0  9994
2 39428  97.8345  38.1514 0075961  15.7640 344.5919 14.94436956667091
HYDRA-W
1 63490U 25052BL  26113.93882235  .05662091  24406-5  29537-2 0  9997
2 63490  97.3690  18.2798 0008685 203.5899 156.4993 16.20186780 62336
SilverSat
1 66909U 98067XV  26113.44966717  .07226154  12288-4  11979-2 0  9998
2 66909  51.6027 190.0749 0007952 333.4666  26.5949 16.32457272 22308
IO-86
1 40931U          25360.30710720  .00000000  00000-0  12800-3 0    00
2 40931   6.0006 332.5373 0012733 338.8432   8.1437 14.79075515    01
LILIUM-4
1 71922C 26067AC  26089.50133053 -.00014632  00000 0 -74472-3 0    04
2 71922  97.4497  49.1617 0004341   5.9603 355.7042 15.16896692    16
PARUS-T1
1 98707U 25009N   25063.20000000  .00000000  00000-0  00000-0 0    08
2 98707  97.4430 144.9801 0003811 149.1702 136.3402 15.16239457    06
T.MicroSat-1
1 98515U 25276Y   25347.12519372 +.00009703 +00000+0 +47621-3 0 00218
2 98515  97.4377  58.8963 0002080  99.7173 260.4296 15.18293117002180
ARICA-2
1 98329U 27001A   26113.71443610  .00000000  00000-0  29916-3 0    03
2 98329  97.5133 264.2063 0010953 206.3608 281.8662 15.08387874    01
CORIOLIS
1 27640U 03001A   26117.95542013  .00000130  00000+0  81808-4 0  9991
2 27640  98.7143 125.6049 0013985   2.6763 357.4486 14.19930467207099
